NORAD_CAT_ID,OBJECT_NAME,OBJECT_TYPE,EPOCH,MEAN_MOTION,ECCENTRICITY,INCLINATION,RA_OF_ASC_NODE,ARG_OF_PERICENTER,MEAN_ANOMALY,BSTAR,MEAN_MOTION_DOT,MEAN_MOTION_DDOT,TLE_LINE0,TLE_LINE1,TLE_LINE2,SEMIMAJOR_AXIS,PERIOD,APOGEE,PERIGEE,DECAYED
55745.0,STARLINK-5565,PAYLOAD,2023-10-12 04:22:11,14.98328664,0.0002934,69.9976,302.2004,268.2749,91.8074,2.1747e-05,1.66e-06,0.0,0 STARLINK-5565,1 55745U 23028E   23285.18208155  .00000166  00000-0  21747-4 0  9999,2 55745  69.9976 302.2004 0002934 268.2749  91.8074 14.98328664 34299,6950.197,96.107,574.101,570.023,0.0
55745.0,STARLINK-5565,PAYLOAD,2023-10-12 10:46:43,14.98333166,0.0002778,69.9974,301.5269,266.14,93.9442,7.0176e-05,7.44e-06,0.0,0 STARLINK-5565,1 55745U 23028E   23285.44911802  .00000744  00000-0  70176-4 0  9990,2 55745  69.9974 301.5269 0002778 266.1400  93.9442 14.98333166 34339,6950.183,96.107,573.979,570.117,0.0
55745.0,STARLINK-5565,PAYLOAD,2023-10-12 18:47:24,14.98328594,0.0002824,69.9976,300.6857,280.1503,79.9338,8.8982e-05,9.69e-06,0.0,0 STARLINK-5565,1 55745U 23028E   23285.78292150  .00000969  00000-0  88982-4 0  9998,2 55745  69.9976 300.6857 0002824 280.1503  79.9338 14.98328594 34388,6950.197,96.107,574.025,570.1,0.0
55745.0,STARLINK-5565,PAYLOAD,2023-10-13 04:24:12,14.98327893,0.0002927,69.9975,299.6753,270.6845,89.3978,0.00011486,1.278e-05,0.0,0 STARLINK-5565,1 55745U 23028E   23286.18348093  .00001278  00000-0  11486-3 0  9999,2 55745  69.9975 299.6753 0002927 270.6845  89.3978 14.98327893 34449,6950.199,96.107,574.099,570.03,0.0
55745.0,STARLINK-5565,PAYLOAD,2023-10-13 10:48:44,14.983312,0.0002841,69.9979,299.0013,267.9009,92.1825,0.00012603,1.411e-05,0.0,0 STARLINK-5565,1 55745U 23028E   23286.45051835  .00001411  00000-0  12603-3 0  9995,2 55745  69.9979 299.0013 0002841 267.9009  92.1825 14.98331200 34486,6950.189,96.107,574.029,570.08,0.0
55745.0,STARLINK-5565,PAYLOAD,2023-10-14 10:50:45,14.98336073,0.000286,69.9979,296.4768,268.0148,92.0683,0.00012791,1.434e-05,0.0,0 STARLINK-5565,1 55745U 23028E   23287.45191368  .00001434  00000-0  12791-3 0  9995,2 55745  69.9979 296.4768 0002860 268.0148  92.0683 14.98336073 34632,6950.174,96.107,574.027,570.051,0.0
55745.0,STARLINK-5565,PAYLOAD,2023-10-15 02:52:06,14.98325061,0.0002864,69.9982,294.7934,269.66,90.4231,-6.3849e-05,-8.55e-06,0.0,0 STARLINK-5565,1 55745U 23028E   23288.11952503 -.00000855  00000-0 -63849-4 0  9994,2 55745  69.9982 294.7934 0002864 269.6600  90.4231 14.98325061 34733,6950.208,96.107,574.064,570.083,0.0
55745.0,STARLINK-5565,PAYLOAD,2023-10-15 10:52:47,14.98326405,0.0002797,69.9983,293.9521,268.42,91.6638,-5.5776e-05,-7.58e-06,0.0,0 STARLINK-5565,1 55745U 23028E   23288.45332461 -.00000758  00000-0 -55776-4 0  9998,2 55745  69.9983 293.9521 0002797 268.4200  91.6638 14.98326405 34787,6950.204,96.107,574.013,570.125,0.0
55745.0,STARLINK-5565,PAYLOAD,2023-10-15 17:17:19,14.98328805,0.0002793,69.9984,293.2788,268.7939,91.29,-9.7177e-06,-2.09e-06,0.0,0 STARLINK-5565,1 55745U 23028E   23288.72036237 -.00000209  00000-0 -97177-5 0  9993,2 55745  69.9984 293.2788 0002793 268.7939  91.2900 14.98328805 34823,6950.197,96.107,574.003,570.12,0.0
55745.0,STARLINK-5565,PAYLOAD,2023-10-16 02:54:07,14.98334002,0.0003039,69.9977,292.2676,272.0996,87.9815,1.6452e-05,1.03e-06,0.0,0 STARLINK-5565,1 55745U 23028E   23289.12091783  .00000103  00000-0  16452-4 0  9992,2 55745  69.9977 292.2676 0003039 272.0996  87.9815 14.98334002 34884,6950.181,96.107,574.158,569.933,0.0
55745.0,STARLINK-5565,PAYLOAD,2023-10-16 10:54:47,14.98335869,0.0002854,69.9979,291.4259,267.9189,92.1643,7.6044e-05,8.15e-06,0.0,0 STARLINK-5565,1 55745U 23028E   23289.45471453  .00000815  00000-0  76044-4 0  9997,2 55745  69.9979 291.4259 0002854 267.9189  92.1643 14.98335869 34930,6950.175,96.107,574.023,570.056,0.0
55745.0,STARLINK-5565,PAYLOAD,2023-10-17 09:20:40,14.98329049,0.0002862,69.9989,289.069,267.3191,92.7641,6.7169e-05,7.09e-06,0.0,0 STARLINK-5565,1 55745U 23028E   23290.38935931  .00000709  00000-0  67169-4 0  9997,2 55745  69.9989 289.0690 0002862 267.3191  92.7641 14.98329049 35072,6950.196,96.107,574.05,570.072,0.0
55745.0,STARLINK-5565,PAYLOAD,2023-10-18 02:58:09,14.98331716,0.0002569,69.9989,287.2183,257.1283,102.9589,-3.7608e-06,-1.38e-06,0.0,0 STARLINK-5565,1 55745U 23028E   23291.12371987 -.00000138  00000-0 -37608-5 0  9999,2 55745  69.9989 287.2183 0002569 257.1283 102.9589 14.98331716 35183,6950.188,96.107,573.838,570.267,0.0
55745.0,STARLINK-5565,PAYLOAD,2023-10-18 09:22:41,14.98332929,0.0002888,69.9986,286.5446,269.8919,90.1909,-7.5279e-06,-1.83e-06,0.0,0 STARLINK-5565,1 55745U 23028E   23291.39075854 -.00000183  00000-0 -75279-5 0  9998,2 55745  69.9986 286.5446 0002888 269.8919  90.1909 14.98332929 35220,6950.184,96.107,574.056,570.042,0.0
55745.0,STARLINK-5565,PAYLOAD,2023-10-19 04:36:18,14.98295308,0.0002735,69.9981,284.524,271.8583,88.2263,0.0006441,7.594e-05,0.0,0 STARLINK-5565,1 55745U 23028E   23292.19187977  .00007594  00000-0  64410-3 0  9991,2 55745  69.9981 284.5240 0002735 271.8583  88.2263 14.98295308 35349,6950.3,96.109,574.066,570.264,0.0
55745.0,STARLINK-5565,PAYLOAD,2023-10-19 09:24:42,14.98334776,0.0002921,69.9981,284.0193,270.0575,90.0249,7.4238e-05,7.93e-06,0.0,0 STARLINK-5565,1 55745U 23028E   23292.39215410  .00000793  00000-0  74238-4 0  9991,2 55745  69.9981 284.0193 0002921 270.0575  90.0249 14.98334776 35371,6950.178,96.107,574.073,570.013,0.0
55745.0,STARLINK-5565,PAYLOAD,2023-10-19 17:25:22,14.98331423,0.0002932,69.9982,283.1777,270.2964,89.7859,5.1523e-05,5.22e-06,0.0,0 STARLINK-5565,1 55745U 23028E   23292.72595623  .00000522  00000-0  51523-4 0  9997,2 55745  69.9982 283.1777 0002932 270.2964  89.7859 14.98331423 35420,6950.188,96.107,574.091,570.016,0.0
55745.0,STARLINK-5565,PAYLOAD,2023-10-20 01:26:03,14.98330503,0.0002913,69.9982,282.3361,270.0722,90.0103,6.62e-06,-1.4e-07,0.0,0 STARLINK-5565,1 55745U 23028E   23293.05975798 -.00000014  00000-0  66200-5 0  9995,2 55745  69.9982 282.3361 0002913 270.0722  90.0103 14.98330503 35479,6950.191,96.107,574.081,570.032,0.0
55745.0,STARLINK-5565,PAYLOAD,2023-10-20 09:26:43,14.98334267,0.0002863,69.9983,281.4947,269.7055,90.3776,5.3155e-05,5.41e-06,0.0,0 STARLINK-5565,1 55745U 23028E   23293.39355404  .00000541  00000-0  53155-4 0  9996,2 55745  69.9983 281.4947 0002863 269.7055  90.3776 14.98334267 35524,6950.18,96.107,574.035,570.055,0.0
55745.0,STARLINK-5565,PAYLOAD,2023-10-21 03:04:12,14.98320895,0.0002819,69.9985,279.6425,269.4623,90.6213,0.00012344,1.38e-05,0.0,0 STARLINK-5565,1 55745U 23028E   23294.12792119  .00001380  00000-0  12344-3 0  9992,2 55745  69.9985 279.6425 0002819 269.4623  90.6213 14.98320895 35638,6950.221,96.108,574.045,570.127,0.0
55745.0,STARLINK-5565,PAYLOAD,2023-10-21 09:28:44,14.98328318,0.0002675,69.9988,278.9701,263.5968,96.4887,3.9891e-05,3.83e-06,0.0,0 STARLINK-5565,1 55745U 23028E   23294.39495862  .00000383  00000-0  39891-4 0  9995,2 55745  69.9988 278.9701 0002675 263.5968  96.4887 14.98328318 35670,6950.198,96.107,573.922,570.204,0.0
55745.0,STARLINK-5565,PAYLOAD,2023-10-21 15:53:16,14.98332932,0.0002907,69.9985,278.2959,269.3886,90.694,1.6939e-05,1.09e-06,0.0,0 STARLINK-5565,1 55745U 23028E   23294.66199547  .00000109  00000-0  16939-4 0  9990,2 55745  69.9985 278.2959 0002907 269.3886  90.6940 14.98332932 35714,6950.184,96.107,574.069,570.028,0.0
55745.0,STARLINK-5565,PAYLOAD,2023-10-21 22:17:48,14.98331288,0.0003026,69.9986,277.6225,268.8913,91.1899,6.3958e-05,6.7e-06,0.0,0 STARLINK-5565,1 55745U 23028E   23294.92903466  .00000670  00000-0  63958-4 0  9998,2 55745  69.9986 277.6225 0003026 268.8913  91.1899 14.98331288 35758,6950.189,96.107,574.157,569.951,0.0
55745.0,STARLINK-5565,PAYLOAD,2023-10-22 09:30:44,14.98335987,0.0002625,69.9987,276.4445,262.844,97.242,0.00010507,1.161e-05,0.0,0 STARLINK-5565,1 55745U 23028E   23295.39634983  .00001161  00000-0  10507-3 0  9992,2 55745  69.9987 276.4445 0002625 262.8440  97.2420 14.98335987 35828,6950.174,96.107,573.864,570.215,0.0
55745.0,STARLINK-5565,PAYLOAD,2023-10-22 15:55:17,14.98331593,0.0002297,69.9998,275.7693,279.5649,80.525,2.8332e-05,2.45e-06,0.0,0 STARLINK-5565,1 55745U 23028E   23295.66339568  .00000245  00000-0  28332-4 0  9991,2 55745  69.9998 275.7693 0002297 279.5649  80.5250 14.98331593 35867,6950.188,96.107,573.649,570.457,0.0
55745.0,STARLINK-5565,PAYLOAD,2023-10-23 07:56:38,14.98322503,0.0002662,69.9988,274.0868,264.871,95.2146,-6.2036e-07,-1e-06,0.0,0 STARLINK-5565,1 55745U 23028E   23296.33100134 -.00000100  00000-0 -62036-6 0  9994,2 55745  69.9988 274.0868 0002662 264.8710  95.2146 14.98322503 35963,6950.216,96.107,573.931,570.231,0.0
55745.0,STARLINK-5565,PAYLOAD,2023-10-24 04:46:22,14.98329993,0.0002595,69.9989,271.8998,259.4305,100.6562,-1.9964e-05,-3.31e-06,0.0,0 STARLINK-5565,1 55745U 23028E   23297.19887728 -.00000331  00000-0 -19964-4 0  9996,2 55745  69.9989 271.8998 0002595 259.4305 100.6562 14.98329993 36096,6950.193,96.107,573.861,570.254,0.0
55745.0,STARLINK-5565,PAYLOAD,2023-10-24 11:10:55,14.98331334,0.0002425,69.9992,271.2249,259.7851,100.3035,3.5484e-05,3.3e-06,0.0,0 STARLINK-5565,1 55745U 23028E   23297.46591517  .00000330  00000-0  35484-4 0  9996,2 55745  69.9992 271.2249 0002425 259.7851 100.3035 14.98331334 36133,6950.189,96.107,573.739,570.368,0.0
55745.0,STARLINK-5565,PAYLOAD,2023-10-25 06:24:32,14.98320952,0.0002382,70.0004,269.2073,247.4201,112.6706,0.00015036,1.701e-05,0.0,0 STARLINK-5565,1 55745U 23028E   23298.26703837  .00001701  00000-0  15036-3 0  9998,2 55745  70.0004 269.2073 0002382 247.4201 112.6706 14.98320952 36255,6950.221,96.108,573.741,570.43,0.0
55745.0,STARLINK-5565,PAYLOAD,2023-10-26 08:02:40,14.98331769,0.0002686,69.9992,266.5125,264.852,95.2333,8.072e-05,8.7e-06,0.0,0 STARLINK-5565,1 55745U 23028E   23299.33519329  .00000870  00000-0  80720-4 0  9997,2 55745  69.9992 266.5125 0002686 264.8520  95.2333 14.98331769 36418,6950.187,96.107,573.919,570.186,0.0
